COSMOS 2576             
1 59773U 24092A   26068.82603826  .00015211  00000+0  56283-3 0  9991
2 59773  97.4253 186.0053 0005946 159.7731 200.3745 15.27760963101271
STARLINK-33826          
1 63641U 25083H   26068.19991251  .00042536  00000+0  15460-2 0  9994
2 63641  43.0033   7.8334 0001423 247.1375 112.9326 15.27587536 49993
