[{"OBJECT_NAME":"COSMOS 2576","OBJECT_ID":"2024-092A","EPOCH":"2026-03-09T19:49:29.705664","MEAN_MOTION":15.27760963,"ECCENTRICITY":0.0005946,"INCLINATION":97.4253,"RA_OF_ASC_NODE":186.0053,"ARG_OF_PERICENTER":159.7731,"MEAN_ANOMALY":200.3745,"EPHEMERIS_TYPE":0,"CLASSIFICATION_TYPE":"U","NORAD_CAT_ID":59773,"ELEMENT_SET_NO":999,"REV_AT_EPOCH":10127,"BSTAR":0.00056283,"MEAN_MOTION_DOT":0.00015211,"MEAN_MOTION_DDOT":0},{"OBJECT_NAME":"STARLINK-33826","OBJECT_ID":"2025-083H","EPOCH":"2026-03-09T04:47:52.440864","MEAN_MOTION":15.27587536,"ECCENTRICITY":0.00014238,"INCLINATION":43.0033,"RA_OF_ASC_NODE":7.8334,"ARG_OF_PERICENTER":247.1375,"MEAN_ANOMALY":112.9326,"EPHEMERIS_TYPE":0,"CLASSIFICATION_TYPE":"U","NORAD_CAT_ID":63641,"ELEMENT_SET_NO":999,"REV_AT_EPOCH":4999,"BSTAR":0.0015460003,"MEAN_MOTION_DOT":0.00042536,"MEAN_MOTION_DDOT":0}]
